{
    "links": {
        "self": "http://www.neowsapp.com/rest/v1/neo/3884021?api_key=iIulBulltgU6a56xZRHN4H3l9WmuAYTsLGpBGhQ2"
    },
    "id": "3884021",
    "neo_reference_id": "3884021",
    "name": "(2019 UK9)",
    "designation": "2019 UK9",
    "nasa_jpl_url": "http://ssd.jpl.nasa.gov/sbdb.cgi?sstr=3884021",
    "absolute_magnitude_h": 22.7,
    "estimated_diameter": {
        "kilometers": {
            "estimated_diameter_min": 0.0766575574,
            "estimated_diameter_max": 0.1714115092
        },
        "meters": {
            "estimated_diameter_min": 76.6575573531,
            "estimated_diameter_max": 171.4115092306
        },
        "miles": {
            "estimated_diameter_min": 0.0476327831,
            "estimated_diameter_max": 0.1065101409
        },
        "feet": {
            "estimated_diameter_min": 251.5011804664,
            "estimated_diameter_max": 562.3737359442
        }
    },
    "is_potentially_hazardous_asteroid": false,
    "close_approach_data": [
        {
            "close_approach_date": "2019-09-24",
            "close_approach_date_full": "2019-Sep-24 11:04",
            "epoch_date_close_approach": 1569323040000,
            "relative_velocity": {
                "kilometers_per_second": "14.8217365712",
                "kilometers_per_hour": "53358.2516563114",
                "miles_per_hour": "33154.7425361119"
            },
            "miss_distance": {
                "astronomical": "0.0714065814",
                "lunar": "27.7771601646",
                "kilometers": "10682272.481421618",
                "miles": "6637656.3277416084"
            },
            "orbiting_body": "Earth"
        },
        {
            "close_approach_date": "2085-06-27",
            "close_approach_date_full": "2085-Jun-27 16:03",
            "epoch_date_close_approach": 3644496180000,
            "relative_velocity": {
                "kilometers_per_second": "12.0375754063",
                "kilometers_per_hour": "43335.2714626613",
                "miles_per_hour": "26926.8524263408"
            },
            "miss_distance": {
                "astronomical": "0.0331443571",
                "lunar": "12.8931549119",
                "kilometers": "4958325.224679377",
                "miles": "3080960.4285823226"
            },
            "orbiting_body": "Mars"
        }
    ],
    "orbital_data": {
        "orbit_id": "1",
        "orbit_determination_date": "2019-10-27 19:42:10",
        "first_observation_date": "2019-10-24",
        "last_observation_date": "2019-10-27",
        "data_arc_in_days": 3,
        "observations_used": 12,
        "orbit_uncertainty": "9",
        "minimum_orbit_intersection": ".0707675",
        "jupiter_tisserand_invariant": "4.262",
        "epoch_osculation": "2458781.5",
        "eccentricity": ".5294182087961041",
        "semi_major_axis": "1.559600273648659",
        "inclination": "4.56385405733675",
        "ascending_node_longitude": "119.4848569973691",
        "orbital_period": "711.4074042235015",
        "perihelion_distance": ".7339194903356722",
        "perihelion_argument": "166.1218987544386",
        "aphelion_distance": "2.385281056961646",
        "perihelion_time": "2458702.242189407304",
        "mean_anomaly": "40.10755531074914",
        "mean_motion": ".5060391526187988",
        "equinox": "J2000",
        "orbit_class": {
            "orbit_class_type": "APO",
            "orbit_class_description": "Near-Earth asteroid orbits which cross the Earth’s orbit similar to that of 1862 Apollo",
            "orbit_class_range": "a (semi-major axis) > 1.0 AU; q (perihelion) < 1.017 AU"
        }
    },
    "is_sentry_object": false
}